NORAD_CAT_ID,OBJECT_NAME,OBJECT_TYPE,EPOCH,MEAN_MOTION,ECCENTRICITY,INCLINATION,RA_OF_ASC_NODE,ARG_OF_PERICENTER,MEAN_ANOMALY,BSTAR,MEAN_MOTION_DOT,MEAN_MOTION_DDOT,TLE_LINE0,TLE_LINE1,TLE_LINE2,SEMIMAJOR_AXIS,PERIOD,APOGEE,PERIGEE,DECAYED
53529.0,STARLINK-4478,PAYLOAD,2023-08-08 12:28:45,15.08854733,8.87e-05,53.2172,352.6599,88.4429,271.6664,0.00054247,8.36e-05,0.0,0 STARLINK-4478,1 53529U 22101C   23220.51997155  .00008360  00000-0  54247-3 0  9993,2 53529  53.2172 352.6599 0000887  88.4429 271.6664 15.08854733 53625,6917.835,95.437,540.314,539.087,0.0
53529.0,STARLINK-4478,PAYLOAD,2023-08-09 09:08:46,15.08842632,6.02e-05,53.2171,348.7935,21.7078,338.394,-3.2609e-05,-8.07e-06,0.0,0 STARLINK-4478,1 53529U 22101C   23221.38108860 -.00000807  00000-0 -32609-4 0  9995,2 53529  53.2171 348.7935 0000602  21.7078 338.3940 15.08842632 53756,6917.872,95.437,540.154,539.321,0.0
53529.0,STARLINK-4478,PAYLOAD,2023-08-10 08:59:31,15.08866322,8.01e-05,53.2168,344.335,99.5418,260.5665,0.00064189,9.95e-05,0.0,0 STARLINK-4478,1 53529U 22101C   23222.37467431  .00009950  00000-0  64189-3 0  9990,2 53529  53.2168 344.3350 0000801  99.5418 260.5665 15.08866322 53906,6917.8,95.436,540.219,539.111,0.0
53529.0,STARLINK-4478,PAYLOAD,2023-08-10 15:21:03,15.08891485,7.68e-05,53.2166,343.145,104.7928,255.315,0.0013201,0.00020813,0.0,0 STARLINK-4478,1 53529U 22101C   23222.63962492  .00020813  00000-0  13201-2 0  9995,2 53529  53.2166 343.1450 0000768 104.7928 255.3150 15.08891485 53942,6917.723,95.434,540.119,539.057,0.0
53529.0,STARLINK-4478,PAYLOAD,2023-08-11 00:53:21,15.08882648,3.98e-05,53.2167,341.36,350.5556,9.5429,0.00079663,0.00012428,0.0,0 STARLINK-4478,1 53529U 22101C   23223.03705728  .00012428  00000-0  79663-3 0  9995,2 53529  53.2167 341.3600 0000398 350.5556   9.5429 15.08882648 54004,6917.75,95.435,539.89,539.34,0.0
53529.0,STARLINK-4478,PAYLOAD,2023-08-11 16:47:15,15.08805772,9.53e-05,53.2163,338.388,48.1127,311.9946,0.0014346,0.00022596,0.0,0 STARLINK-4478,1 53529U 22101C   23223.69948084  .00022596  00000-0  14346-2 0  9994,2 53529  53.2163 338.3880 0000953  48.1127 311.9946 15.08805772 54105,6917.985,95.44,540.509,539.191,0.0
53529.0,STARLINK-4478,PAYLOAD,2023-08-13 00:34:58,15.08843198,7.16e-05,53.2143,332.4429,29.5584,330.5449,0.0007976,0.0001243,0.0,0 STARLINK-4478,1 53529U 22101C   23225.02428823  .00012430  00000-0  79760-3 0  9995,2 53529  53.2143 332.4429 0000716  29.5584 330.5449 15.08843198 54305,6917.871,95.437,540.231,539.24,0.0
53529.0,STARLINK-4478,PAYLOAD,2023-08-13 13:18:03,15.08837056,0.0001005,53.2157,330.0617,52.7876,307.3208,0.00028497,4.25e-05,0.0,0 STARLINK-4478,1 53529U 22101C   23225.55421294  .00004250  00000-0  28497-3 0  9990,2 53529  53.2157 330.0617 0001005  52.7876 307.3208 15.08837056 54386,6917.889,95.438,540.45,539.059,0.0
53529.0,STARLINK-4478,PAYLOAD,2023-08-15 00:16:33,15.08848696,0.0001073,53.2157,323.5215,48.5294,311.579,0.00041034,6.25e-05,0.0,0 STARLINK-4478,1 53529U 22101C   23227.01149309  .00006250  00000-0  41034-3 0  9991,2 53529  53.2157 323.5215 0001073  48.5294 311.5790 15.08848696 54609,6917.854,95.437,540.461,538.977,0.0
53529.0,STARLINK-4478,PAYLOAD,2023-08-15 11:24:15,15.08844878,0.0001051,53.2164,321.4394,53.3192,306.7897,0.0002496,3.687e-05,0.0,0 STARLINK-4478,1 53529U 22101C   23227.47517381  .00003687  00000-0  24960-3 0  9990,2 53529  53.2164 321.4394 0001051  53.3192 306.7897 15.08844878 54678,6917.865,95.437,540.458,539.003,0.0
53529.0,STARLINK-4478,PAYLOAD,2023-08-16 09:39:39,15.08835882,9.9e-05,53.2168,317.2775,48.676,311.4318,9.1401e-05,1.167e-05,0.0,0 STARLINK-4478,1 53529U 22101C   23228.40253757  .00001167  00000-0  91401-4 0  9994,2 53529  53.2168 317.2775 0000990  48.6760 311.4318 15.08835882 54819,6917.893,95.438,540.443,539.073,0.0
53529.0,STARLINK-4478,PAYLOAD,2023-08-17 11:05:49,15.08844162,0.000112,53.2164,312.5196,55.4788,304.6309,9.545e-05,1.232e-05,0.0,0 STARLINK-4478,1 53529U 22101C   23229.46237271  .00001232  00000-0  95450-4 0  9995,2 53529  53.2164 312.5196 0001120  55.4788 304.6309 15.08844162 54974,6917.868,95.437,540.507,538.958,0.0
53529.0,STARLINK-4478,PAYLOAD,2023-08-17 22:13:31,15.08835594,0.0001014,53.216,310.4374,80.4165,279.6941,0.00026221,3.887e-05,0.0,0 STARLINK-4478,1 53529U 22101C   23229.92605683  .00003887  00000-0  26221-3 0  9999,2 53529  53.2160 310.4374 0001014  80.4165 279.6941 15.08835594 55045,6917.894,95.438,540.46,539.057,0.0
53529.0,STARLINK-4478,PAYLOAD,2023-08-18 10:56:37,15.08828935,0.0001031,53.2172,308.0581,90.8756,269.2354,5.4371e-05,5.77e-06,0.0,0 STARLINK-4478,1 53529U 22101C   23230.45598407  .00000577  00000-0  54371-4 0  9995,2 53529  53.2172 308.0581 0001031  90.8756 269.2354 15.08828935 55124,6917.914,95.438,540.492,539.066,0.0
53529.0,STARLINK-4478,PAYLOAD,2023-08-18 23:39:41,15.08840399,0.0001044,53.2183,305.6807,88.0365,272.0746,5.3343e-05,5.61e-06,0.0,0 STARLINK-4478,1 53529U 22101C   23230.98589830  .00000561  00000-0  53343-4 0  9994,2 53529  53.2183 305.6807 0001044  88.0365 272.0746 15.08840399 55203,6917.879,95.438,540.466,539.022,0.0
53529.0,STARLINK-4478,PAYLOAD,2023-08-20 04:16:37,15.08845026,0.0001063,53.2175,300.3273,91.3132,268.7982,0.00020774,3.02e-05,0.0,0 STARLINK-4478,1 53529U 22101C   23232.17821090  .00003020  00000-0  20774-3 0  9998,2 53529  53.2175 300.3273 0001063  91.3132 268.7982 15.08845026 55388,6917.865,95.437,540.465,538.995,0.0
53529.0,STARLINK-4478,PAYLOAD,2023-08-20 12:13:33,15.08839703,0.0001042,53.2169,298.8361,82.9957,277.1153,9.5454e-05,1.232e-05,0.0,0 STARLINK-4478,1 53529U 22101C   23232.50942016  .00001232  00000-0  95454-4 0  9998,2 53529  53.2169 298.8361 0001042  82.9957 277.1153 15.08839703 55433,6917.881,95.438,540.467,539.025,0.0
53529.0,STARLINK-4478,PAYLOAD,2023-08-22 03:58:12,15.08840272,0.0001127,53.216,291.4043,77.4841,282.6277,6.2877e-05,7.13e-06,0.0,0 STARLINK-4478,1 53529U 22101C   23234.16542190  .00000713  00000-0  62877-4 0  9997,2 53529  53.2160 291.4043 0001127  77.4841 282.6277 15.08840272 55683,6917.88,95.438,540.524,538.965,0.0
53529.0,STARLINK-4478,PAYLOAD,2023-08-23 08:35:08,15.08841532,0.000122,53.2159,286.0528,72.2812,287.8313,6.1896e-05,6.97e-06,0.0,0 STARLINK-4478,1 53529U 22101C   23235.35774032  .00000697  00000-0  61896-4 0  9992,2 53529  53.2159 286.0528 0001220  72.2812 287.8313 15.08841532 55862,6917.876,95.437,540.585,538.897,0.0
53529.0,STARLINK-4478,PAYLOAD,2023-08-24 10:01:19,15.08839144,0.0001196,53.2162,281.2954,82.4736,277.6392,5.4922e-05,5.86e-06,0.0,0 STARLINK-4478,1 53529U 22101C   23236.41758176  .00000586  00000-0  54922-4 0  9990,2 53529  53.2162 281.2954 0001196  82.4736 277.6392 15.08839144 56025,6917.883,95.438,540.575,538.921,0.0
53529.0,STARLINK-4478,PAYLOAD,2023-08-25 01:55:09,15.08848787,0.0001112,53.2154,278.3201,77.5067,282.6049,0.0001337,1.841e-05,0.0,0 STARLINK-4478,1 53529U 22101C   23237.07997188  .00001841  00000-0  13370-3 0  9997,2 53529  53.2154 278.3201 0001112  77.5067 282.6049 15.08848787 56127,6917.854,95.437,540.488,538.949,0.0
53529.0,STARLINK-4478,PAYLOAD,2023-08-25 08:16:41,15.08852442,0.0001136,53.2157,277.1313,83.1863,276.9258,0.00015752,2.221e-05,0.0,0 STARLINK-4478,1 53529U 22101C   23237.34492756  .00002221  00000-0  15752-3 0  9997,2 53529  53.2157 277.1313 0001136  83.1863 276.9258 15.08852442 56169,6917.842,95.437,540.493,538.921,0.0
53529.0,STARLINK-4478,PAYLOAD,2023-08-26 01:45:57,15.08838002,0.0001256,53.2169,273.8621,96.9587,263.1548,6.7494e-05,7.86e-06,0.0,0 STARLINK-4478,1 53529U 22101C   23238.07357827  .00000786  00000-0  67494-4 0  9992,2 53529  53.2169 273.8621 0001256  96.9587 263.1548 15.08838002 56273,6917.886,95.438,540.62,538.883,0.0
53529.0,STARLINK-4478,PAYLOAD,2023-08-26 09:42:53,15.08828347,0.0001071,53.2153,272.3715,91.252,268.8595,-7.9521e-06,-4.14e-06,0.0,0 STARLINK-4478,1 53529U 22101C   23238.40478959 -.00000414  00000-0 -79521-5 0  9994,2 53529  53.2153 272.3715 0001071  91.2520 268.8595 15.08828347 56325,6917.916,95.438,540.522,539.04,0.0
53529.0,STARLINK-4478,PAYLOAD,2023-08-26 11:18:16,15.08830415,0.0001075,53.2154,272.0739,92.2913,267.8202,-3.4042e-05,-8.29e-06,0.0,0 STARLINK-4478,1 53529U 22101C   23238.47102904 -.00000829  00000-0 -34042-4 0  9993,2 53529  53.2154 272.0739 0001075  92.2913 267.8202 15.08830415 56334,6917.91,95.438,540.518,539.031,0.0
53529.0,STARLINK-4478,PAYLOAD,2023-08-27 01:36:45,15.08834889,0.0001295,53.215,269.3971,109.5781,250.5351,-6.2652e-05,-1.285e-05,0.0,0 STARLINK-4478,1 53529U 22101C   23239.06718877 -.00001285  00000-0 -62652-4 0  9996,2 53529  53.2150 269.3971 0001295 109.5781 250.5351 15.08834889 56429,6917.896,95.438,540.657,538.865,0.0
53529.0,STARLINK-4478,PAYLOAD,2023-08-27 09:33:40,15.08839777,0.0001194,53.2156,267.9111,102.5861,257.5265,-1.9674e-05,-6.01e-06,0.0,0 STARLINK-4478,1 53529U 22101C   23239.39838553 -.00000601  00000-0 -19674-4 0  9993,2 53529  53.2156 267.9111 0001194 102.5861 257.5265 15.08839777 56472,6917.881,95.438,540.572,538.92,0.0
53529.0,STARLINK-4478,PAYLOAD,2023-08-28 01:27:31,15.08836313,0.000114,53.2158,264.9374,95.5038,264.6085,0.00021094,3.071e-05,0.0,0 STARLINK-4478,1 53529U 22101C   23240.06078414  .00003071  00000-0  21094-3 0  9991,2 53529  53.2158 264.9374 0001140  95.5038 264.6085 15.08836313 56573,6917.892,95.438,540.545,538.968,0.0
53529.0,STARLINK-4478,PAYLOAD,2023-08-28 18:56:46,15.08837798,0.000113,53.2144,261.6665,95.0595,265.0526,0.0001675,2.379e-05,0.0,0 STARLINK-4478,1 53529U 22101C   23240.78942785  .00002379  00000-0  16750-3 0  9994,2 53529  53.2144 261.6665 0001130  95.0595 265.0526 15.08837798 56682,6917.887,95.438,540.534,538.97,0.0
53529.0,STARLINK-4478,PAYLOAD,2023-08-29 07:39:51,15.08838108,0.0001203,53.215,259.2876,93.3492,266.7638,6.7853e-05,7.92e-06,0.0,0 STARLINK-4478,1 53529U 22101C   23241.31934896  .00000792  00000-0  67853-4 0  9996,2 53529  53.2150 259.2876 0001203  93.3492 266.7638 15.08838108 56761,6917.886,95.438,540.583,538.919,0.0
